KORSAT-2                
1 62377U 24247A   26068.41070335  .00005163  00000+0  43498-3 0  9994
2 62377  45.4085 225.0391 0009773  57.7708 302.4117 14.99271316 66592
STARLINK-34524          
1 64431U 25129V   26068.45269155 -.00010325  00000+0 -85866-3 0  9994
2 64431  70.0013  74.9812 0003004 266.7410  93.3405 14.98337950 41193
